ONEWEB-0171             
1 48070U 21025AE  25031.54117789  .00000029  00000+0  45469-4 0  9994
2 48070  87.8884  59.9910 0001953  96.9303 263.2049 13.13469624187769
ONEWEB-0172             
1 48071U 21025AF  25030.53025048  .00000382  00000+0  10110-2 0  9994
2 48071  87.8883  60.1593 0002040  95.3981 264.7381 13.13470279188521
ONEWEB-0174             
1 48072U 21025AG  25031.04603247  .00000143  00000+0  35734-3 0  9990
2 48072  87.8879  60.0703 0001898  90.4664 269.6683 13.13470904187919
ONEWEB-0175             
1 48073U 21025AH  25031.15077659  .00000143  00000+0  35681-3 0  9996
2 48073  87.8876  60.0242 0001948 104.8352 255.2993 13.13468809187584
ONEWEB-0177             
1 48074U 21025AJ  25030.47785939 -.00000175  00000+0 -51327-3 0  9990
2 48074  87.8878  60.1701 0002164  89.0324 271.1053 13.13470754187689
ONEWEB-0178             
1 48075U 21025AK  25031.10488212 -.00000261  00000+0 -75008-3 0  9994
2 48075  87.8883  60.0780 0002080  91.0200 269.1167 13.13470466187813
ONEWEB-0108             
1 48076U 21025AL  25030.53182207  .00000367  00000+0  97075-3 0  9999
2 48076  87.8877  60.1555 0001641  91.8923 268.2394 13.13471238187674
ONEWEB-0169             
1 48077U 21025AM  25031.09681131 -.00000235  00000+0 -67718-3 0  9999
2 48077  87.8879  60.0581 0001612  91.0300 269.1014 13.13470030187638
